[{"OBJECT_NAME":"FLOCK 4G-25","OBJECT_ID":"2025-009AP","EPOCH":"2026-03-09T17:53:50.680608","MEAN_MOTION":15.27424196,"ECCENTRICITY":8.276e-5,"INCLINATION":97.4049,"RA_OF_ASC_NODE":151.4141,"ARG_OF_PERICENTER":316.3151,"MEAN_ANOMALY":43.8023,"EPHEMERIS_TYPE":0,"CLASSIFICATION_TYPE":"U","NORAD_CAT_ID":62646,"ELEMENT_SET_NO":999,"REV_AT_EPOCH":6373,"BSTAR":0.00038902475,"MEAN_MOTION_DOT":0.00010373,"MEAN_MOTION_DDOT":0},{"OBJECT_NAME":"STARLINK-34078","OBJECT_ID":"2025-101U","EPOCH":"2026-03-09T04:49:09.580512","MEAN_MOTION":15.27629618,"ECCENTRICITY":0.00012335,"INCLINATION":43.0028,"RA_OF_ASC_NODE":0.4462,"ARG_OF_PERICENTER":261.5037,"MEAN_ANOMALY":98.5675,"EPHEMERIS_TYPE":0,"CLASSIFICATION_TYPE":"U","NORAD_CAT_ID":64012,"ELEMENT_SET_NO":999,"REV_AT_EPOCH":4698,"BSTAR":0.0010502309,"MEAN_MOTION_DOT":0.00028795,"MEAN_MOTION_DDOT":0}]
